start=new Date('2022-04-05T00:00:00.000Z').valueOf();
sats=[{"TIME_SYSTEM":"UTC","MEAN_MOTION":"14.98326386","ARG_OF_PERICENTER":"270.0375","FILE":"3387897","NORAD_CAT_ID":"49138","TLE_LINE2":"2 49138  70.0000 312.8595 0002990 270.0375 145.3962 14.98326386  3598","GP_ID":"200426715","TLE_LINE1":"1 49138U 21082J   22094.58334491  .00032278  00000-0  27008-2 0  9993","COUNTRY_CODE":"US","INCLINATION":"70.0000","MEAN_ANOMALY":"145.3962","ELEMENT_SET_NO":"999","CLASSIFICATION_TYPE":"U","OBJECT_ID":"2021-082J","EPOCH":"2022-04-04T14:00:01.000224","BSTAR":"0.00270080000000","MEAN_ELEMENT_THEORY":"SGP4","APOAPSIS":"574.147","OBJECT_NAME":"STARLINK-3058","PERIAPSIS":"569.991","OBJECT_TYPE":"PAYLOAD","RCS_SIZE":"LARGE","CENTER_NAME":"EARTH","DECAY_DATE":null,"SEMIMAJOR_AXIS":"6950.204","PERIOD":"96.107","MEAN_MOTION_DOT":"0.00032278","REF_FRAME":"TEME","ECCENTRICITY":"0.00029900","RA_OF_ASC_NODE":"312.8595","REV_AT_EPOCH":"359","LAUNCH_DATE":"2021-09-14","EPHEMERIS_TYPE":"0","SITE":"AFWTR","MEAN_MOTION_DDOT":"0.0000000000000"},{"OBJECT_NAME":"STARLINK-3057","PERIAPSIS":"384.302","OBJECT_TYPE":"PAYLOAD","RCS_SIZE":"LARGE","CENTER_NAME":"EARTH","MEAN_ELEMENT_THEORY":"SGP4","APOAPSIS":"388.945","ECCENTRICITY":"0.00034320","RA_OF_ASC_NODE":"277.9253","REV_AT_EPOCH":"370","LAUNCH_DATE":"2021-09-14","EPHEMERIS_TYPE":"0","SITE":"AFWTR","MEAN_MOTION_DDOT":"0.0000000000000","DECAY_DATE":null,"SEMIMAJOR_AXIS":"6764.759","PERIOD":"92.287","MEAN_MOTION_DOT":"-0.00717275","REF_FRAME":"TEME","ARG_OF_PERICENTER":"267.0394","FILE":"3387897","NORAD_CAT_ID":"49139","TIME_SYSTEM":"UTC","MEAN_MOTION":"15.60358148","MEAN_ANOMALY":"31.9078","INCLINATION":"70.0004","CLASSIFICATION_TYPE":"U","ELEMENT_SET_NO":"999","OBJECT_ID":"2021-082K","EPOCH":"2022-04-04T14:00:01.000224","BSTAR":"-0.00951620000000","TLE_LINE2":"2 49139  70.0004 277.9253 0003432 267.0394  31.9078 15.60358148  3706","TLE_LINE1":"1 49139U 21082K   22094.58334491 -.00717275  00000-0 -95162-2 0  9999","GP_ID":"200426465","COUNTRY_CODE":"US"},{"MEAN_ELEMENT_THEORY":"SGP4","APOAPSIS":"390.276","OBJECT_NAME":"STARLINK-3118","PERIAPSIS":"385.526","OBJECT_TYPE":"PAYLOAD","RCS_SIZE":"LARGE","CENTER_NAME":"EARTH","DECAY_DATE":null,"SEMIMAJOR_AXIS":"6766.036","PERIOD":"92.313","MEAN_MOTION_DOT":"-0.00712652","REF_FRAME":"TEME","RA_OF_ASC_NODE":"276.7622","ECCENTRICITY":"0.00035100","REV_AT_EPOCH":"3193","LAUNCH_DATE":"2021-09-14","SITE":"AFWTR","EPHEMERIS_TYPE":"0","MEAN_MOTION_DDOT":"0.0000000000000","TIME_SYSTEM":"UTC","MEAN_MOTION":"15.59916413","ARG_OF_PERICENTER":"263.3658","FILE":"3388432","NORAD_CAT_ID":"49140","TLE_LINE2":"2 49140  69.9998 276.7622 0003510 263.3658 225.9707 15.59916413 31936","GP_ID":"200438846","TLE_LINE1":"1 49140U 21082L   22095.00001157 -.00712652  00000-0 -96107-2 0  9993","COUNTRY_CODE":"US","INCLINATION":"69.9998","MEAN_ANOMALY":"225.9707","ELEMENT_SET_NO":"999","CLASSIFICATION_TYPE":"U","OBJECT_ID":"2021-082L","EPOCH":"2022-04-05T00:00:00.999648","BSTAR":"-0.00961070000000"},{"ARG_OF_PERICENTER":"281.9943","NORAD_CAT_ID":"49141","FILE":"3388432","TIME_SYSTEM":"UTC","MEAN_MOTION":"14.98302367","ELEMENT_SET_NO":"999","CLASSIFICATION_TYPE":"U","INCLINATION":"70.0003","MEAN_ANOMALY":"246.0308","BSTAR":"0.00395110000000","OBJECT_ID":"2021-082M","EPOCH":"2022-04-05T00:00:00.999648","TLE_LINE2":"2 49141  70.0003 311.8091 0003090 281.9943 246.0308 14.98302367 32272","TLE_LINE1":"1 49141U 21082M   22095.00001157  .00047337  00000-0  39511-2 0  9999","COUNTRY_CODE":"US","GP_ID":"200439327","PERIAPSIS":"569.996","OBJECT_NAME":"STARLINK-3093","RCS_SIZE":"LARGE","CENTER_NAME":"EARTH","OBJECT_TYPE":"PAYLOAD","MEAN_ELEMENT_THEORY":"SGP4","APOAPSIS":"574.291","LAUNCH_DATE":"2021-09-14","ECCENTRICITY":"0.00030900","RA_OF_ASC_NODE":"311.8091","REV_AT_EPOCH":"3227","MEAN_MOTION_DDOT":"0.0000000000000","EPHEMERIS_TYPE":"0","SITE":"AFWTR","PERIOD":"96.109","MEAN_MOTION_DOT":"0.00047337","DECAY_DATE":null,"SEMIMAJOR_AXIS":"6950.278","REF_FRAME":"TEME"},{"TLE_LINE1":"1 49142U 21082N   22095.00001157 -.00712629  00000-0 -96027-2 0  9990","GP_ID":"200438856","COUNTRY_CODE":"US","TLE_LINE2":"2 49142  69.9998 276.7633 0003455 268.4955 223.4592 15.59937784 31933","EPOCH":"2022-04-05T00:00:00.999648","OBJECT_ID":"2021-082N","BSTAR":"-0.00960270000000","MEAN_ANOMALY":"223.4592","INCLINATION":"69.9998","CLASSIFICATION_TYPE":"U","ELEMENT_SET_NO":"999","MEAN_MOTION":"15.59937784","TIME_SYSTEM":"UTC","FILE":"3388432","NORAD_CAT_ID":"49142","ARG_OF_PERICENTER":"268.4955","REF_FRAME":"TEME","DECAY_DATE":null,"SEMIMAJOR_AXIS":"6765.974","MEAN_MOTION_DOT":"-0.00712629","PERIOD":"92.311","SITE":"AFWTR","EPHEMERIS_TYPE":"0","MEAN_MOTION_DDOT":"0.0000000000000","REV_AT_EPOCH":"3193","ECCENTRICITY":"0.00034550","RA_OF_ASC_NODE":"276.7633","LAUNCH_DATE":"2021-09-14","APOAPSIS":"390.177","MEAN_ELEMENT_THEORY":"SGP4","OBJECT_TYPE":"PAYLOAD","CENTER_NAME":"EARTH","RCS_SIZE":"LARGE","OBJECT_NAME":"STARLINK-3042","PERIAPSIS":"385.501"},{"APOAPSIS":"579.252","MEAN_ELEMENT_THEORY":"SGP4","OBJECT_TYPE":"PAYLOAD","RCS_SIZE":"LARGE","CENTER_NAME":"EARTH","OBJECT_NAME":"STARLINK-3109","PERIAPSIS":"574.977","REF_FRAME":"TEME","DECAY_DATE":null,"SEMIMAJOR_AXIS":"6955.249","PERIOD":"96.212","MEAN_MOTION_DOT":"0.00036820","EPHEMERIS_TYPE":"0","SITE":"AFWTR","MEAN_MOTION_DDOT":"0.0000000000000","RA_OF_ASC_NODE":"290.9081","ECCENTRICITY":"0.00030730","REV_AT_EPOCH":"3159","LAUNCH_DATE":"2021-09-14","MEAN_MOTION":"14.96696382","TIME_SYSTEM":"UTC","FILE":"3388432","NORAD_CAT_ID":"49143","ARG_OF_PERICENTER":"280.8293","TLE_LINE2":"2 49143  69.9972 290.9081 0003073 280.8293 176.1165 14.96696382 31598","TLE_LINE1":"1 49143U 21082P   22095.00001157  .00036820  00000-0  32095-2 0  9996","GP_ID":"200438857","COUNTRY_CODE":"US","OBJECT_ID":"2021-082P","EPOCH":"2022-04-05T00:00:00.999648","BSTAR":"0.00320950000000","MEAN_ANOMALY":"176.1165","INCLINATION":"69.9972","ELEMENT_SET_NO":"999","CLASSIFICATION_TYPE":"U"},{"ELEMENT_SET_NO":"999","CLASSIFICATION_TYPE":"U","MEAN_ANOMALY":"269.8478","INCLINATION":"70.0010","BSTAR":"0.00394550000000","OBJECT_ID":"2021-082Q","EPOCH":"2022-04-05T00:00:00.999648","TLE_LINE2":"2 49144  70.0010 311.8171 0003131 283.8358 269.8478 14.98305007 31071","GP_ID":"200439339","TLE_LINE1":"1 49144U 21082Q   22095.00001157  .00047273  00000-0  39455-2 0  9998","COUNTRY_CODE":"US","ARG_OF_PERICENTER":"283.8358","NORAD_CAT_ID":"49144","FILE":"3388448","TIME_SYSTEM":"UTC","MEAN_MOTION":"14.98305007","LAUNCH_DATE":"2021-09-14","RA_OF_ASC_NODE":"311.8171","ECCENTRICITY":"0.00031310","REV_AT_EPOCH":"3107","MEAN_MOTION_DDOT":"0.0000000000000","EPHEMERIS_TYPE":"0","SITE":"AFWTR","PERIOD":"96.109","MEAN_MOTION_DOT":"0.00047273","DECAY_DATE":null,"SEMIMAJOR_AXIS":"6950.270","REF_FRAME":"TEME","PERIAPSIS":"569.959","OBJECT_NAME":"STARLINK-3100","RCS_SIZE":"LARGE","CENTER_NAME":"EARTH","OBJECT_TYPE":"PAYLOAD","MEAN_ELEMENT_THEORY":"SGP4","APOAPSIS":"574.311"},{"TIME_SYSTEM":"UTC","MEAN_MOTION":"15.60405857","ARG_OF_PERICENTER":"267.6240","FILE":"3388448","NORAD_CAT_ID":"49145","TLE_LINE1":"1 49145U 21082R   22095.00001157 -.00712561  00000-0 -94308-2 0  9998","GP_ID":"200439338","COUNTRY_CODE":"US","TLE_LINE2":"2 49145  69.9998 276.7465 0003441 267.6240 245.4860 15.60405857 31937","MEAN_ANOMALY":"245.4860","INCLINATION":"69.9998","CLASSIFICATION_TYPE":"U","ELEMENT_SET_NO":"999","EPOCH":"2022-04-05T00:00:00.999648","OBJECT_ID":"2021-082R","BSTAR":"-0.00943080000000","MEAN_ELEMENT_THEORY":"SGP4","APOAPSIS":"388.814","OBJECT_NAME":"STARLINK-3119","PERIAPSIS":"384.158","OBJECT_TYPE":"PAYLOAD","CENTER_NAME":"EARTH","RCS_SIZE":"LARGE","DECAY_DATE":null,"SEMIMAJOR_AXIS":"6764.621","MEAN_MOTION_DOT":"-0.00712561","PERIOD":"92.284","REF_FRAME":"TEME","REV_AT_EPOCH":"3193","ECCENTRICITY":"0.00034410","RA_OF_ASC_NODE":"276.7465","LAUNCH_DATE":"2021-09-14","EPHEMERIS_TYPE":"0","SITE":"AFWTR","MEAN_MOTION_DDOT":"0.0000000000000"},{"INCLINATION":"69.9974","MEAN_ANOMALY":"113.7785","CLASSIFICATION_TYPE":"U","ELEMENT_SET_NO":"999","EPOCH":"2022-04-04T22:00:00.999936","OBJECT_ID":"2021-082S","BSTAR":"0.00311050000000","TLE_LINE1":"1 49146U 21082S   22094.91667824  .00035673  00000-0  31105-2 0  9993","COUNTRY_CODE":"US","GP_ID":"200433046","TLE_LINE2":"2 49146  69.9974 291.1211 0003209 280.3982 113.7785 14.96693617 32743","ARG_OF_PERICENTER":"280.3982","FILE":"3388133","NORAD_CAT_ID":"49146","TIME_SYSTEM":"UTC","MEAN_MOTION":"14.96693617","REV_AT_EPOCH":"3274","ECCENTRICITY":"0.00032090","RA_OF_ASC_NODE":"291.1211","LAUNCH_DATE":"2021-09-14","EPHEMERIS_TYPE":"0","SITE":"AFWTR","MEAN_MOTION_DDOT":"0.0000000000000","SEMIMAJOR_AXIS":"6955.258","DECAY_DATE":null,"MEAN_MOTION_DOT":"0.00035673","PERIOD":"96.212","REF_FRAME":"TEME","OBJECT_NAME":"STARLINK-3116","PERIAPSIS":"574.891","OBJECT_TYPE":"PAYLOAD","CENTER_NAME":"EARTH","RCS_SIZE":"LARGE","MEAN_ELEMENT_THEORY":"SGP4","APOAPSIS":"579.355"},{"RCS_SIZE":"LARGE","CENTER_NAME":"EARTH","OBJECT_TYPE":"PAYLOAD","PERIAPSIS":"384.741","OBJECT_NAME":"STARLINK-3071","APOAPSIS":"389.571","MEAN_ELEMENT_THEORY":"SGP4","MEAN_MOTION_DDOT":"0.0000000000000","SITE":"AFWTR","EPHEMERIS_TYPE":"0","LAUNCH_DATE":"2021-09-14","RA_OF_ASC_NODE":"276.9903","ECCENTRICITY":"0.00035690","REV_AT_EPOCH":"3309","REF_FRAME":"TEME","PERIOD":"92.297","MEAN_MOTION_DOT":"-0.00714653","DECAY_DATE":null,"SEMIMAJOR_AXIS":"6765.291","NORAD_CAT_ID":"49147","FILE":"3388135","ARG_OF_PERICENTER":"265.1113","MEAN_MOTION":"15.60174013","TIME_SYSTEM":"UTC","BSTAR":"-0.00954510000000","OBJECT_ID":"2021-082T","EPOCH":"2022-04-04T22:00:00.999936","ELEMENT_SET_NO":"999","CLASSIFICATION_TYPE":"U","MEAN_ANOMALY":"125.6642","INCLINATION":"70.0000","TLE_LINE2":"2 49147  70.0000 276.9903 0003569 265.1113 125.6642 15.60174013 33091","GP_ID":"200432679","TLE_LINE1":"1 49147U 21082T   22094.91667824 -.00714653  00000-0 -95451-2 0  9992","COUNTRY_CODE":"US"}];
